[{"OBJECT_NAME":"PLEIADES 1A","OBJECT_ID":"2011-076F","EPOCH":"2026-03-09T22:28:30.112032","MEAN_MOTION":14.5854003,"ECCENTRICITY":0.00017089,"INCLINATION":98.204,"RA_OF_ASC_NODE":145.3465,"ARG_OF_PERICENTER":88.1046,"MEAN_ANOMALY":20.7914,"EPHEMERIS_TYPE":0,"CLASSIFICATION_TYPE":"U","NORAD_CAT_ID":38012,"ELEMENT_SET_NO":999,"REV_AT_EPOCH":75752,"BSTAR":9.8090711e-5,"MEAN_MOTION_DOT":4.1e-6,"MEAN_MOTION_DDOT":0},{"OBJECT_NAME":"ORBCOMM FM109","OBJECT_ID":"2014-040A","EPOCH":"2026-03-09T20:32:40.283520","MEAN_MOTION":14.58723838,"ECCENTRICITY":0.00013699,"INCLINATION":47.0026,"RA_OF_ASC_NODE":201.0749,"ARG_OF_PERICENTER":153.2814,"MEAN_ANOMALY":206.8143,"EPHEMERIS_TYPE":0,"CLASSIFICATION_TYPE":"U","NORAD_CAT_ID":40086,"ELEMENT_SET_NO":999,"REV_AT_EPOCH":61984,"BSTAR":0.00020185652,"MEAN_MOTION_DOT":7.8e-6,"MEAN_MOTION_DDOT":0}]
